BEIDOU-3 M2 (C20)       
1 43002U 17069B   26071.95651705  .00000011  00000+0  00000+0 0  9996
2 43002  56.6078  66.2881 0009836 329.3549  30.6095  1.86230974 56807
BEIDOU-3 M7 (C27)       
1 43107U 18003A   26069.01366214 -.00000054  00000+0  00000+0 0  9991
2 43107  54.4158 305.7741 0004805  71.6026 288.4990  1.86232563 55501
BEIDOU-3 M8 (C28)       
1 43108U 18003B   26073.25488985 -.00000022  00000+0  00000+0 0  9998
2 43108  54.4046 305.6088 0002915 295.6830  64.3443  1.86231237 55592
BEIDOU-3 M4 (C22)       
1 43207U 18018A   26072.08626660  .00000012  00000+0  00000+0 0  9996
2 43207  56.5678  66.3153 0006972 350.3592   9.6495  1.86231392 54951
BEIDOU-3 M3 (C21)       
1 43208U 18018B   26072.15271001  .00000012  00000+0  00000+0 0  9990
2 43208  56.5674  66.3171 0010039 319.6425  40.3052  1.86231479 54957
BEIDOU-3 M9 (C29)       
1 43245U 18029A   26071.83299133 -.00000026  00000+0  00000+0 0  9999
2 43245  54.2803 303.3197 0000989  26.5592 333.4992  1.86228478 54102
BEIDOU-3 M10 (C30)      
1 43246U 18029B   26070.15695869 -.00000040  00000+0  00000+0 0  9996
2 43246  54.2796 303.4048 0005206  25.3248 334.7506  1.86229238 54056
BEIDOU-2 IGSO-7 (C16)   
1 43539U 18057A   26073.66231619 -.00000149  00000+0  00000+0 0  9990
2 43539  55.1859 163.8862 0100658 236.7866 122.7872  1.00280609 28185
BEIDOU-3 M5 (C23)       
1 43581U 18062A   26071.45501707 -.00000011  00000+0  00000+0 0  9994
2 43581  54.0877 185.5927 0002388 304.9134  55.0505  1.86228824 51834
BEIDOU-3 M6 (C24)       
1 43582U 18062B   26073.46580583 -.00000013  00000+0  00000+0 0  9999
2 43582  54.0871 185.5136 0005891  41.2236 318.8045  1.86227846 51873
BEIDOU-3 M12 (C26)      
1 43602U 18067A   26071.25639623 -.00000011  00000+0  00000+0 0  9990
2 43602  54.1816 184.3275 0008368  38.9780 321.0706  1.86227850 51310
BEIDOU-3 M11 (C25)      
1 43603U 18067B   26071.39116749 -.00000012  00000+0  00000+0 0  9996
2 43603  54.1791 184.2861 0004938  32.5137 327.5049  1.86227337 51342
BEIDOU-3 M13 (C32)      
1 43622U 18072A   26071.88388212  .00000009  00000+0  00000+0 0  9998
2 43622  56.5410  65.8356 0009034 308.7444  51.1959  1.86231253 50869
BEIDOU-3 M14 (C33)      
1 43623U 18072B   26071.74933770  .00000008  00000+0  00000+0 0  9998
2 43623  56.5428  65.8343 0006575 329.8398  30.1432  1.86231274 50859
BEIDOU-3 M16 (C35)      
1 43647U 18078A   26073.51695253 -.00000017  00000+0  00000+0 0  9999
2 43647  54.1752 303.3057 0008462  32.6452 327.4645  1.86232405 50392
BEIDOU-3 M15 (C34)      
1 43648U 18078B   26073.10929714 -.00000019  00000+0  00000+0 0  9999
2 43648  54.1714 303.3209 0005407  39.9151 320.1811  1.86232472 50403
BEIDOU-3 G1 (C59)       
1 43683U 18085A   26072.31265080 -.00000279  00000+0  00000+0 0  9995
2 43683   2.8312 100.0786 0002095   8.4898 314.8220  1.00265903 27091
